[{"OBJECT_NAME":"OBJECT C","OBJECT_ID":"2025-055C","EPOCH":"2026-03-09T23:32:37.740768","MEAN_MOTION":15.18796405,"ECCENTRICITY":0.00122942,"INCLINATION":97.6357,"RA_OF_ASC_NODE":209.5356,"ARG_OF_PERICENTER":140.8519,"MEAN_ANOMALY":219.3606,"EPHEMERIS_TYPE":0,"CLASSIFICATION_TYPE":"U","NORAD_CAT_ID":63293,"ELEMENT_SET_NO":999,"REV_AT_EPOCH":5407,"BSTAR":0.00071493632,"MEAN_MOTION_DOT":0.00014849,"MEAN_MOTION_DDOT":0},{"OBJECT_NAME":"CHUBUSAT-3","OBJECT_ID":"2016-012C","EPOCH":"2026-03-09T22:11:59.804736","MEAN_MOTION":15.17633969,"ECCENTRICITY":0.00091539,"INCLINATION":31.0042,"RA_OF_ASC_NODE":259.576,"ARG_OF_PERICENTER":133.2555,"MEAN_ANOMALY":226.885,"EPHEMERIS_TYPE":0,"CLASSIFICATION_TYPE":"U","NORAD_CAT_ID":41339,"ELEMENT_SET_NO":999,"REV_AT_EPOCH":55310,"BSTAR":0.00036072373,"MEAN_MOTION_DOT":7.561e-5,"MEAN_MOTION_DDOT":0}]
